<?xml version="1.0" encoding="UTF-8"?>
<gpx version="1.1" creator="Peaking App Review sample" xmlns="http://www.topografix.com/GPX/1/1">
  <metadata><name>Snowdon via the Llanberis Path</name></metadata>
  <trk><name>Snowdon via the Llanberis Path</name><type>hiking</type><trkseg>
    <trkpt lat="53.117300" lon="-4.121400"><ele>110</ele><time>2026-09-12T08:30:00Z</time></trkpt>
    <trkpt lat="53.117014" lon="-4.121024"><ele>116</ele><time>2026-09-12T08:30:40Z</time></trkpt>
    <trkpt lat="53.116728" lon="-4.120648"><ele>122</ele><time>2026-09-12T08:31:20Z</time></trkpt>
    <trkpt lat="53.116441" lon="-4.120272"><ele>128</ele><time>2026-09-12T08:32:00Z</time></trkpt>
    <trkpt lat="53.116155" lon="-4.119897"><ele>133</ele><time>2026-09-12T08:32:40Z</time></trkpt>
    <trkpt lat="53.115869" lon="-4.119521"><ele>139</ele><time>2026-09-12T08:33:20Z</time></trkpt>
    <trkpt lat="53.115583" lon="-4.119145"><ele>145</ele><time>2026-09-12T08:34:00Z</time></trkpt>
    <trkpt lat="53.115297" lon="-4.118769"><ele>151</ele><time>2026-09-12T08:34:40Z</time></trkpt>
    <trkpt lat="53.115010" lon="-4.118393"><ele>157</ele><time>2026-09-12T08:35:20Z</time></trkpt>
    <trkpt lat="53.114724" lon="-4.118017"><ele>163</ele><time>2026-09-12T08:36:00Z</time></trkpt>
    <trkpt lat="53.114438" lon="-4.117641"><ele>169</ele><time>2026-09-12T08:36:40Z</time></trkpt>
    <trkpt lat="53.114152" lon="-4.117266"><ele>174</ele><time>2026-09-12T08:37:20Z</time></trkpt>
    <trkpt lat="53.113866" lon="-4.116890"><ele>180</ele><time>2026-09-12T08:38:00Z</time></trkpt>
    <trkpt lat="53.113579" lon="-4.116514"><ele>186</ele><time>2026-09-12T08:38:40Z</time></trkpt>
    <trkpt lat="53.113293" lon="-4.116138"><ele>192</ele><time>2026-09-12T08:39:20Z</time></trkpt>
    <trkpt lat="53.113007" lon="-4.115762"><ele>198</ele><time>2026-09-12T08:40:00Z</time></trkpt>
    <trkpt lat="53.112721" lon="-4.115386"><ele>204</ele><time>2026-09-12T08:40:40Z</time></trkpt>
    <trkpt lat="53.112434" lon="-4.115010"><ele>210</ele><time>2026-09-12T08:41:20Z</time></trkpt>
    <trkpt lat="53.112148" lon="-4.114634"><ele>216</ele><time>2026-09-12T08:42:00Z</time></trkpt>
    <trkpt lat="53.111862" lon="-4.114259"><ele>221</ele><time>2026-09-12T08:42:40Z</time></trkpt>
    <trkpt lat="53.111576" lon="-4.113883"><ele>227</ele><time>2026-09-12T08:43:20Z</time></trkpt>
    <trkpt lat="53.111290" lon="-4.113507"><ele>233</ele><time>2026-09-12T08:44:00Z</time></trkpt>
    <trkpt lat="53.111003" lon="-4.113131"><ele>239</ele><time>2026-09-12T08:44:40Z</time></trkpt>
    <trkpt lat="53.110717" lon="-4.112755"><ele>245</ele><time>2026-09-12T08:45:20Z</time></trkpt>
    <trkpt lat="53.110431" lon="-4.112379"><ele>251</ele><time>2026-09-12T08:46:00Z</time></trkpt>
    <trkpt lat="53.110145" lon="-4.112003"><ele>257</ele><time>2026-09-12T08:46:40Z</time></trkpt>
    <trkpt lat="53.109859" lon="-4.111628"><ele>262</ele><time>2026-09-12T08:47:20Z</time></trkpt>
    <trkpt lat="53.109572" lon="-4.111252"><ele>268</ele><time>2026-09-12T08:48:00Z</time></trkpt>
    <trkpt lat="53.109286" lon="-4.110876"><ele>274</ele><time>2026-09-12T08:48:40Z</time></trkpt>
    <trkpt lat="53.109000" lon="-4.110500"><ele>280</ele><time>2026-09-12T08:49:20Z</time></trkpt>
    <trkpt lat="53.108688" lon="-4.110200"><ele>284</ele><time>2026-09-12T08:50:00Z</time></trkpt>
    <trkpt lat="53.108377" lon="-4.109900"><ele>288</ele><time>2026-09-12T08:50:40Z</time></trkpt>
    <trkpt lat="53.108065" lon="-4.109600"><ele>292</ele><time>2026-09-12T08:51:20Z</time></trkpt>
    <trkpt lat="53.107754" lon="-4.109300"><ele>295</ele><time>2026-09-12T08:52:00Z</time></trkpt>
    <trkpt lat="53.107442" lon="-4.109000"><ele>299</ele><time>2026-09-12T08:52:40Z</time></trkpt>
    <trkpt lat="53.107131" lon="-4.108700"><ele>303</ele><time>2026-09-12T08:53:20Z</time></trkpt>
    <trkpt lat="53.106819" lon="-4.108400"><ele>307</ele><time>2026-09-12T08:54:00Z</time></trkpt>
    <trkpt lat="53.106508" lon="-4.108100"><ele>311</ele><time>2026-09-12T08:54:40Z</time></trkpt>
    <trkpt lat="53.106196" lon="-4.107800"><ele>315</ele><time>2026-09-12T08:55:20Z</time></trkpt>
    <trkpt lat="53.105885" lon="-4.107500"><ele>318</ele><time>2026-09-12T08:56:00Z</time></trkpt>
    <trkpt lat="53.105573" lon="-4.107200"><ele>322</ele><time>2026-09-12T08:56:40Z</time></trkpt>
    <trkpt lat="53.105262" lon="-4.106900"><ele>326</ele><time>2026-09-12T08:57:20Z</time></trkpt>
    <trkpt lat="53.104950" lon="-4.106600"><ele>330</ele><time>2026-09-12T08:58:00Z</time></trkpt>
    <trkpt lat="53.104638" lon="-4.106300"><ele>334</ele><time>2026-09-12T08:58:40Z</time></trkpt>
    <trkpt lat="53.104327" lon="-4.106000"><ele>338</ele><time>2026-09-12T08:59:20Z</time></trkpt>
    <trkpt lat="53.104015" lon="-4.105700"><ele>342</ele><time>2026-09-12T09:00:00Z</time></trkpt>
    <trkpt lat="53.103704" lon="-4.105400"><ele>345</ele><time>2026-09-12T09:00:40Z</time></trkpt>
    <trkpt lat="53.103392" lon="-4.105100"><ele>349</ele><time>2026-09-12T09:01:20Z</time></trkpt>
    <trkpt lat="53.103081" lon="-4.104800"><ele>353</ele><time>2026-09-12T09:02:00Z</time></trkpt>
    <trkpt lat="53.102769" lon="-4.104500"><ele>357</ele><time>2026-09-12T09:02:40Z</time></trkpt>
    <trkpt lat="53.102458" lon="-4.104200"><ele>361</ele><time>2026-09-12T09:03:20Z</time></trkpt>
    <trkpt lat="53.102146" lon="-4.103900"><ele>365</ele><time>2026-09-12T09:04:00Z</time></trkpt>
    <trkpt lat="53.101835" lon="-4.103600"><ele>368</ele><time>2026-09-12T09:04:40Z</time></trkpt>
    <trkpt lat="53.101523" lon="-4.103300"><ele>372</ele><time>2026-09-12T09:05:20Z</time></trkpt>
    <trkpt lat="53.101212" lon="-4.103000"><ele>376</ele><time>2026-09-12T09:06:00Z</time></trkpt>
    <trkpt lat="53.100900" lon="-4.102700"><ele>380</ele><time>2026-09-12T09:06:40Z</time></trkpt>
    <trkpt lat="53.100597" lon="-4.102362"><ele>386</ele><time>2026-09-12T09:07:20Z</time></trkpt>
    <trkpt lat="53.100294" lon="-4.102025"><ele>391</ele><time>2026-09-12T09:08:00Z</time></trkpt>
    <trkpt lat="53.099991" lon="-4.101687"><ele>397</ele><time>2026-09-12T09:08:40Z</time></trkpt>
    <trkpt lat="53.099688" lon="-4.101350"><ele>402</ele><time>2026-09-12T09:09:20Z</time></trkpt>
    <trkpt lat="53.099384" lon="-4.101012"><ele>408</ele><time>2026-09-12T09:10:00Z</time></trkpt>
    <trkpt lat="53.099081" lon="-4.100675"><ele>414</ele><time>2026-09-12T09:10:40Z</time></trkpt>
    <trkpt lat="53.098778" lon="-4.100337"><ele>419</ele><time>2026-09-12T09:11:20Z</time></trkpt>
    <trkpt lat="53.098475" lon="-4.100000"><ele>425</ele><time>2026-09-12T09:12:00Z</time></trkpt>
    <trkpt lat="53.098172" lon="-4.099662"><ele>431</ele><time>2026-09-12T09:12:40Z</time></trkpt>
    <trkpt lat="53.097869" lon="-4.099325"><ele>436</ele><time>2026-09-12T09:13:20Z</time></trkpt>
    <trkpt lat="53.097566" lon="-4.098987"><ele>442</ele><time>2026-09-12T09:14:00Z</time></trkpt>
    <trkpt lat="53.097262" lon="-4.098650"><ele>448</ele><time>2026-09-12T09:14:40Z</time></trkpt>
    <trkpt lat="53.096959" lon="-4.098312"><ele>453</ele><time>2026-09-12T09:15:20Z</time></trkpt>
    <trkpt lat="53.096656" lon="-4.097975"><ele>459</ele><time>2026-09-12T09:16:00Z</time></trkpt>
    <trkpt lat="53.096353" lon="-4.097637"><ele>464</ele><time>2026-09-12T09:16:40Z</time></trkpt>
    <trkpt lat="53.096050" lon="-4.097300"><ele>470</ele><time>2026-09-12T09:17:20Z</time></trkpt>
    <trkpt lat="53.095747" lon="-4.096963"><ele>476</ele><time>2026-09-12T09:18:00Z</time></trkpt>
    <trkpt lat="53.095444" lon="-4.096625"><ele>481</ele><time>2026-09-12T09:18:40Z</time></trkpt>
    <trkpt lat="53.095141" lon="-4.096287"><ele>487</ele><time>2026-09-12T09:19:20Z</time></trkpt>
    <trkpt lat="53.094838" lon="-4.095950"><ele>492</ele><time>2026-09-12T09:20:00Z</time></trkpt>
    <trkpt lat="53.094534" lon="-4.095612"><ele>498</ele><time>2026-09-12T09:20:40Z</time></trkpt>
    <trkpt lat="53.094231" lon="-4.095275"><ele>504</ele><time>2026-09-12T09:21:20Z</time></trkpt>
    <trkpt lat="53.093928" lon="-4.094937"><ele>509</ele><time>2026-09-12T09:22:00Z</time></trkpt>
    <trkpt lat="53.093625" lon="-4.094600"><ele>515</ele><time>2026-09-12T09:22:40Z</time></trkpt>
    <trkpt lat="53.093322" lon="-4.094263"><ele>521</ele><time>2026-09-12T09:23:20Z</time></trkpt>
    <trkpt lat="53.093019" lon="-4.093925"><ele>526</ele><time>2026-09-12T09:24:00Z</time></trkpt>
    <trkpt lat="53.092716" lon="-4.093587"><ele>532</ele><time>2026-09-12T09:24:40Z</time></trkpt>
    <trkpt lat="53.092413" lon="-4.093250"><ele>538</ele><time>2026-09-12T09:25:20Z</time></trkpt>
    <trkpt lat="53.092109" lon="-4.092912"><ele>543</ele><time>2026-09-12T09:26:00Z</time></trkpt>
    <trkpt lat="53.091806" lon="-4.092575"><ele>549</ele><time>2026-09-12T09:26:40Z</time></trkpt>
    <trkpt lat="53.091503" lon="-4.092237"><ele>554</ele><time>2026-09-12T09:27:20Z</time></trkpt>
    <trkpt lat="53.091200" lon="-4.091900"><ele>560</ele><time>2026-09-12T09:28:00Z</time></trkpt>
    <trkpt lat="53.090843" lon="-4.091730"><ele>569</ele><time>2026-09-12T09:28:40Z</time></trkpt>
    <trkpt lat="53.090487" lon="-4.091561"><ele>577</ele><time>2026-09-12T09:29:20Z</time></trkpt>
    <trkpt lat="53.090130" lon="-4.091391"><ele>586</ele><time>2026-09-12T09:30:00Z</time></trkpt>
    <trkpt lat="53.089774" lon="-4.091222"><ele>595</ele><time>2026-09-12T09:30:40Z</time></trkpt>
    <trkpt lat="53.089417" lon="-4.091052"><ele>603</ele><time>2026-09-12T09:31:20Z</time></trkpt>
    <trkpt lat="53.089061" lon="-4.090883"><ele>612</ele><time>2026-09-12T09:32:00Z</time></trkpt>
    <trkpt lat="53.088704" lon="-4.090713"><ele>621</ele><time>2026-09-12T09:32:40Z</time></trkpt>
    <trkpt lat="53.088348" lon="-4.090543"><ele>630</ele><time>2026-09-12T09:33:20Z</time></trkpt>
    <trkpt lat="53.087991" lon="-4.090374"><ele>638</ele><time>2026-09-12T09:34:00Z</time></trkpt>
    <trkpt lat="53.087635" lon="-4.090204"><ele>647</ele><time>2026-09-12T09:34:40Z</time></trkpt>
    <trkpt lat="53.087278" lon="-4.090035"><ele>656</ele><time>2026-09-12T09:35:20Z</time></trkpt>
    <trkpt lat="53.086922" lon="-4.089865"><ele>664</ele><time>2026-09-12T09:36:00Z</time></trkpt>
    <trkpt lat="53.086565" lon="-4.089696"><ele>673</ele><time>2026-09-12T09:36:40Z</time></trkpt>
    <trkpt lat="53.086209" lon="-4.089526"><ele>682</ele><time>2026-09-12T09:37:20Z</time></trkpt>
    <trkpt lat="53.085852" lon="-4.089357"><ele>690</ele><time>2026-09-12T09:38:00Z</time></trkpt>
    <trkpt lat="53.085496" lon="-4.089187"><ele>699</ele><time>2026-09-12T09:38:40Z</time></trkpt>
    <trkpt lat="53.085139" lon="-4.089017"><ele>708</ele><time>2026-09-12T09:39:20Z</time></trkpt>
    <trkpt lat="53.084783" lon="-4.088848"><ele>717</ele><time>2026-09-12T09:40:00Z</time></trkpt>
    <trkpt lat="53.084426" lon="-4.088678"><ele>725</ele><time>2026-09-12T09:40:40Z</time></trkpt>
    <trkpt lat="53.084070" lon="-4.088509"><ele>734</ele><time>2026-09-12T09:41:20Z</time></trkpt>
    <trkpt lat="53.083713" lon="-4.088339"><ele>743</ele><time>2026-09-12T09:42:00Z</time></trkpt>
    <trkpt lat="53.083357" lon="-4.088170"><ele>751</ele><time>2026-09-12T09:42:40Z</time></trkpt>
    <trkpt lat="53.083000" lon="-4.088000"><ele>760</ele><time>2026-09-12T09:43:20Z</time></trkpt>
    <trkpt lat="53.082631" lon="-4.087892"><ele>768</ele><time>2026-09-12T09:44:00Z</time></trkpt>
    <trkpt lat="53.082262" lon="-4.087785"><ele>777</ele><time>2026-09-12T09:44:40Z</time></trkpt>
    <trkpt lat="53.081892" lon="-4.087677"><ele>785</ele><time>2026-09-12T09:45:20Z</time></trkpt>
    <trkpt lat="53.081523" lon="-4.087569"><ele>794</ele><time>2026-09-12T09:46:00Z</time></trkpt>
    <trkpt lat="53.081154" lon="-4.087462"><ele>802</ele><time>2026-09-12T09:46:40Z</time></trkpt>
    <trkpt lat="53.080785" lon="-4.087354"><ele>811</ele><time>2026-09-12T09:47:20Z</time></trkpt>
    <trkpt lat="53.080415" lon="-4.087246"><ele>819</ele><time>2026-09-12T09:48:00Z</time></trkpt>
    <trkpt lat="53.080046" lon="-4.087138"><ele>828</ele><time>2026-09-12T09:48:40Z</time></trkpt>
    <trkpt lat="53.079677" lon="-4.087031"><ele>836</ele><time>2026-09-12T09:49:20Z</time></trkpt>
    <trkpt lat="53.079308" lon="-4.086923"><ele>845</ele><time>2026-09-12T09:50:00Z</time></trkpt>
    <trkpt lat="53.078938" lon="-4.086815"><ele>853</ele><time>2026-09-12T09:50:40Z</time></trkpt>
    <trkpt lat="53.078569" lon="-4.086708"><ele>862</ele><time>2026-09-12T09:51:20Z</time></trkpt>
    <trkpt lat="53.078200" lon="-4.086600"><ele>870</ele><time>2026-09-12T09:52:00Z</time></trkpt>
    <trkpt lat="53.077875" lon="-4.086313"><ele>878</ele><time>2026-09-12T09:52:40Z</time></trkpt>
    <trkpt lat="53.077550" lon="-4.086025"><ele>885</ele><time>2026-09-12T09:53:20Z</time></trkpt>
    <trkpt lat="53.077225" lon="-4.085737"><ele>892</ele><time>2026-09-12T09:54:00Z</time></trkpt>
    <trkpt lat="53.076900" lon="-4.085450"><ele>900</ele><time>2026-09-12T09:54:40Z</time></trkpt>
    <trkpt lat="53.076575" lon="-4.085163"><ele>908</ele><time>2026-09-12T09:55:20Z</time></trkpt>
    <trkpt lat="53.076250" lon="-4.084875"><ele>915</ele><time>2026-09-12T09:56:00Z</time></trkpt>
    <trkpt lat="53.075925" lon="-4.084587"><ele>922</ele><time>2026-09-12T09:56:40Z</time></trkpt>
    <trkpt lat="53.075600" lon="-4.084300"><ele>930</ele><time>2026-09-12T09:57:20Z</time></trkpt>
    <trkpt lat="53.075275" lon="-4.084013"><ele>938</ele><time>2026-09-12T09:58:00Z</time></trkpt>
    <trkpt lat="53.074950" lon="-4.083725"><ele>945</ele><time>2026-09-12T09:58:40Z</time></trkpt>
    <trkpt lat="53.074625" lon="-4.083437"><ele>952</ele><time>2026-09-12T09:59:20Z</time></trkpt>
    <trkpt lat="53.074300" lon="-4.083150"><ele>960</ele><time>2026-09-12T10:00:00Z</time></trkpt>
    <trkpt lat="53.073975" lon="-4.082863"><ele>968</ele><time>2026-09-12T10:00:40Z</time></trkpt>
    <trkpt lat="53.073650" lon="-4.082575"><ele>975</ele><time>2026-09-12T10:01:20Z</time></trkpt>
    <trkpt lat="53.073325" lon="-4.082287"><ele>982</ele><time>2026-09-12T10:02:00Z</time></trkpt>
    <trkpt lat="53.073000" lon="-4.082000"><ele>990</ele><time>2026-09-12T10:02:40Z</time></trkpt>
    <trkpt lat="53.072667" lon="-4.081667"><ele>998</ele><time>2026-09-12T10:03:20Z</time></trkpt>
    <trkpt lat="53.072333" lon="-4.081333"><ele>1006</ele><time>2026-09-12T10:04:00Z</time></trkpt>
    <trkpt lat="53.072000" lon="-4.081000"><ele>1013</ele><time>2026-09-12T10:04:40Z</time></trkpt>
    <trkpt lat="53.071667" lon="-4.080667"><ele>1021</ele><time>2026-09-12T10:05:20Z</time></trkpt>
    <trkpt lat="53.071333" lon="-4.080333"><ele>1029</ele><time>2026-09-12T10:06:00Z</time></trkpt>
    <trkpt lat="53.071000" lon="-4.080000"><ele>1037</ele><time>2026-09-12T10:06:40Z</time></trkpt>
    <trkpt lat="53.070667" lon="-4.079667"><ele>1044</ele><time>2026-09-12T10:07:20Z</time></trkpt>
    <trkpt lat="53.070333" lon="-4.079333"><ele>1052</ele><time>2026-09-12T10:08:00Z</time></trkpt>
    <trkpt lat="53.070000" lon="-4.079000"><ele>1060</ele><time>2026-09-12T10:08:40Z</time></trkpt>
    <trkpt lat="53.069750" lon="-4.078550"><ele>1064</ele><time>2026-09-12T10:09:20Z</time></trkpt>
    <trkpt lat="53.069500" lon="-4.078100"><ele>1068</ele><time>2026-09-12T10:10:00Z</time></trkpt>
    <trkpt lat="53.069250" lon="-4.077650"><ele>1072</ele><time>2026-09-12T10:10:40Z</time></trkpt>
    <trkpt lat="53.069000" lon="-4.077200"><ele>1077</ele><time>2026-09-12T10:11:20Z</time></trkpt>
    <trkpt lat="53.068750" lon="-4.076750"><ele>1081</ele><time>2026-09-12T10:12:00Z</time></trkpt>
    <trkpt lat="53.068500" lon="-4.076300"><ele>1085</ele><time>2026-09-12T10:12:40Z</time></trkpt>
    <trkpt lat="53.068750" lon="-4.076750"><ele>1081</ele><time>2026-09-12T10:13:20Z</time></trkpt>
    <trkpt lat="53.069000" lon="-4.077200"><ele>1077</ele><time>2026-09-12T10:14:00Z</time></trkpt>
    <trkpt lat="53.069250" lon="-4.077650"><ele>1072</ele><time>2026-09-12T10:14:40Z</time></trkpt>
    <trkpt lat="53.069500" lon="-4.078100"><ele>1068</ele><time>2026-09-12T10:15:20Z</time></trkpt>
    <trkpt lat="53.069750" lon="-4.078550"><ele>1064</ele><time>2026-09-12T10:16:00Z</time></trkpt>
    <trkpt lat="53.070000" lon="-4.079000"><ele>1060</ele><time>2026-09-12T10:16:40Z</time></trkpt>
    <trkpt lat="53.070333" lon="-4.079333"><ele>1052</ele><time>2026-09-12T10:17:20Z</time></trkpt>
    <trkpt lat="53.070667" lon="-4.079667"><ele>1044</ele><time>2026-09-12T10:18:00Z</time></trkpt>
    <trkpt lat="53.071000" lon="-4.080000"><ele>1037</ele><time>2026-09-12T10:18:40Z</time></trkpt>
    <trkpt lat="53.071333" lon="-4.080333"><ele>1029</ele><time>2026-09-12T10:19:20Z</time></trkpt>
    <trkpt lat="53.071667" lon="-4.080667"><ele>1021</ele><time>2026-09-12T10:20:00Z</time></trkpt>
    <trkpt lat="53.072000" lon="-4.081000"><ele>1013</ele><time>2026-09-12T10:20:40Z</time></trkpt>
    <trkpt lat="53.072333" lon="-4.081333"><ele>1006</ele><time>2026-09-12T10:21:20Z</time></trkpt>
    <trkpt lat="53.072667" lon="-4.081667"><ele>998</ele><time>2026-09-12T10:22:00Z</time></trkpt>
    <trkpt lat="53.073000" lon="-4.082000"><ele>990</ele><time>2026-09-12T10:22:40Z</time></trkpt>
    <trkpt lat="53.073325" lon="-4.082287"><ele>982</ele><time>2026-09-12T10:23:20Z</time></trkpt>
    <trkpt lat="53.073650" lon="-4.082575"><ele>975</ele><time>2026-09-12T10:24:00Z</time></trkpt>
    <trkpt lat="53.073975" lon="-4.082863"><ele>968</ele><time>2026-09-12T10:24:40Z</time></trkpt>
    <trkpt lat="53.074300" lon="-4.083150"><ele>960</ele><time>2026-09-12T10:25:20Z</time></trkpt>
    <trkpt lat="53.074625" lon="-4.083437"><ele>952</ele><time>2026-09-12T10:26:00Z</time></trkpt>
    <trkpt lat="53.074950" lon="-4.083725"><ele>945</ele><time>2026-09-12T10:26:40Z</time></trkpt>
    <trkpt lat="53.075275" lon="-4.084013"><ele>938</ele><time>2026-09-12T10:27:20Z</time></trkpt>
    <trkpt lat="53.075600" lon="-4.084300"><ele>930</ele><time>2026-09-12T10:28:00Z</time></trkpt>
    <trkpt lat="53.075925" lon="-4.084587"><ele>922</ele><time>2026-09-12T10:28:40Z</time></trkpt>
    <trkpt lat="53.076250" lon="-4.084875"><ele>915</ele><time>2026-09-12T10:29:20Z</time></trkpt>
    <trkpt lat="53.076575" lon="-4.085163"><ele>908</ele><time>2026-09-12T10:30:00Z</time></trkpt>
    <trkpt lat="53.076900" lon="-4.085450"><ele>900</ele><time>2026-09-12T10:30:40Z</time></trkpt>
    <trkpt lat="53.077225" lon="-4.085737"><ele>892</ele><time>2026-09-12T10:31:20Z</time></trkpt>
    <trkpt lat="53.077550" lon="-4.086025"><ele>885</ele><time>2026-09-12T10:32:00Z</time></trkpt>
    <trkpt lat="53.077875" lon="-4.086313"><ele>878</ele><time>2026-09-12T10:32:40Z</time></trkpt>
    <trkpt lat="53.078200" lon="-4.086600"><ele>870</ele><time>2026-09-12T10:33:20Z</time></trkpt>
    <trkpt lat="53.078569" lon="-4.086708"><ele>862</ele><time>2026-09-12T10:34:00Z</time></trkpt>
    <trkpt lat="53.078938" lon="-4.086815"><ele>853</ele><time>2026-09-12T10:34:40Z</time></trkpt>
    <trkpt lat="53.079308" lon="-4.086923"><ele>845</ele><time>2026-09-12T10:35:20Z</time></trkpt>
    <trkpt lat="53.079677" lon="-4.087031"><ele>836</ele><time>2026-09-12T10:36:00Z</time></trkpt>
    <trkpt lat="53.080046" lon="-4.087138"><ele>828</ele><time>2026-09-12T10:36:40Z</time></trkpt>
    <trkpt lat="53.080415" lon="-4.087246"><ele>819</ele><time>2026-09-12T10:37:20Z</time></trkpt>
    <trkpt lat="53.080785" lon="-4.087354"><ele>811</ele><time>2026-09-12T10:38:00Z</time></trkpt>
    <trkpt lat="53.081154" lon="-4.087462"><ele>802</ele><time>2026-09-12T10:38:40Z</time></trkpt>
    <trkpt lat="53.081523" lon="-4.087569"><ele>794</ele><time>2026-09-12T10:39:20Z</time></trkpt>
    <trkpt lat="53.081892" lon="-4.087677"><ele>785</ele><time>2026-09-12T10:40:00Z</time></trkpt>
    <trkpt lat="53.082262" lon="-4.087785"><ele>777</ele><time>2026-09-12T10:40:40Z</time></trkpt>
    <trkpt lat="53.082631" lon="-4.087892"><ele>768</ele><time>2026-09-12T10:41:20Z</time></trkpt>
    <trkpt lat="53.083000" lon="-4.088000"><ele>760</ele><time>2026-09-12T10:42:00Z</time></trkpt>
    <trkpt lat="53.083357" lon="-4.088170"><ele>751</ele><time>2026-09-12T10:42:40Z</time></trkpt>
    <trkpt lat="53.083713" lon="-4.088339"><ele>743</ele><time>2026-09-12T10:43:20Z</time></trkpt>
    <trkpt lat="53.084070" lon="-4.088509"><ele>734</ele><time>2026-09-12T10:44:00Z</time></trkpt>
    <trkpt lat="53.084426" lon="-4.088678"><ele>725</ele><time>2026-09-12T10:44:40Z</time></trkpt>
    <trkpt lat="53.084783" lon="-4.088848"><ele>717</ele><time>2026-09-12T10:45:20Z</time></trkpt>
    <trkpt lat="53.085139" lon="-4.089017"><ele>708</ele><time>2026-09-12T10:46:00Z</time></trkpt>
    <trkpt lat="53.085496" lon="-4.089187"><ele>699</ele><time>2026-09-12T10:46:40Z</time></trkpt>
    <trkpt lat="53.085852" lon="-4.089357"><ele>690</ele><time>2026-09-12T10:47:20Z</time></trkpt>
    <trkpt lat="53.086209" lon="-4.089526"><ele>682</ele><time>2026-09-12T10:48:00Z</time></trkpt>
    <trkpt lat="53.086565" lon="-4.089696"><ele>673</ele><time>2026-09-12T10:48:40Z</time></trkpt>
    <trkpt lat="53.086922" lon="-4.089865"><ele>664</ele><time>2026-09-12T10:49:20Z</time></trkpt>
    <trkpt lat="53.087278" lon="-4.090035"><ele>656</ele><time>2026-09-12T10:50:00Z</time></trkpt>
    <trkpt lat="53.087635" lon="-4.090204"><ele>647</ele><time>2026-09-12T10:50:40Z</time></trkpt>
    <trkpt lat="53.087991" lon="-4.090374"><ele>638</ele><time>2026-09-12T10:51:20Z</time></trkpt>
    <trkpt lat="53.088348" lon="-4.090543"><ele>630</ele><time>2026-09-12T10:52:00Z</time></trkpt>
    <trkpt lat="53.088704" lon="-4.090713"><ele>621</ele><time>2026-09-12T10:52:40Z</time></trkpt>
    <trkpt lat="53.089061" lon="-4.090883"><ele>612</ele><time>2026-09-12T10:53:20Z</time></trkpt>
    <trkpt lat="53.089417" lon="-4.091052"><ele>603</ele><time>2026-09-12T10:54:00Z</time></trkpt>
    <trkpt lat="53.089774" lon="-4.091222"><ele>595</ele><time>2026-09-12T10:54:40Z</time></trkpt>
    <trkpt lat="53.090130" lon="-4.091391"><ele>586</ele><time>2026-09-12T10:55:20Z</time></trkpt>
    <trkpt lat="53.090487" lon="-4.091561"><ele>577</ele><time>2026-09-12T10:56:00Z</time></trkpt>
    <trkpt lat="53.090843" lon="-4.091730"><ele>569</ele><time>2026-09-12T10:56:40Z</time></trkpt>
    <trkpt lat="53.091200" lon="-4.091900"><ele>560</ele><time>2026-09-12T10:57:20Z</time></trkpt>
    <trkpt lat="53.091503" lon="-4.092237"><ele>554</ele><time>2026-09-12T10:58:00Z</time></trkpt>
    <trkpt lat="53.091806" lon="-4.092575"><ele>549</ele><time>2026-09-12T10:58:40Z</time></trkpt>
    <trkpt lat="53.092109" lon="-4.092912"><ele>543</ele><time>2026-09-12T10:59:20Z</time></trkpt>
    <trkpt lat="53.092413" lon="-4.093250"><ele>538</ele><time>2026-09-12T11:00:00Z</time></trkpt>
    <trkpt lat="53.092716" lon="-4.093587"><ele>532</ele><time>2026-09-12T11:00:40Z</time></trkpt>
    <trkpt lat="53.093019" lon="-4.093925"><ele>526</ele><time>2026-09-12T11:01:20Z</time></trkpt>
    <trkpt lat="53.093322" lon="-4.094263"><ele>521</ele><time>2026-09-12T11:02:00Z</time></trkpt>
    <trkpt lat="53.093625" lon="-4.094600"><ele>515</ele><time>2026-09-12T11:02:40Z</time></trkpt>
    <trkpt lat="53.093928" lon="-4.094937"><ele>509</ele><time>2026-09-12T11:03:20Z</time></trkpt>
    <trkpt lat="53.094231" lon="-4.095275"><ele>504</ele><time>2026-09-12T11:04:00Z</time></trkpt>
    <trkpt lat="53.094534" lon="-4.095612"><ele>498</ele><time>2026-09-12T11:04:40Z</time></trkpt>
    <trkpt lat="53.094838" lon="-4.095950"><ele>492</ele><time>2026-09-12T11:05:20Z</time></trkpt>
    <trkpt lat="53.095141" lon="-4.096287"><ele>487</ele><time>2026-09-12T11:06:00Z</time></trkpt>
    <trkpt lat="53.095444" lon="-4.096625"><ele>481</ele><time>2026-09-12T11:06:40Z</time></trkpt>
    <trkpt lat="53.095747" lon="-4.096963"><ele>476</ele><time>2026-09-12T11:07:20Z</time></trkpt>
    <trkpt lat="53.096050" lon="-4.097300"><ele>470</ele><time>2026-09-12T11:08:00Z</time></trkpt>
    <trkpt lat="53.096353" lon="-4.097637"><ele>464</ele><time>2026-09-12T11:08:40Z</time></trkpt>
    <trkpt lat="53.096656" lon="-4.097975"><ele>459</ele><time>2026-09-12T11:09:20Z</time></trkpt>
    <trkpt lat="53.096959" lon="-4.098312"><ele>453</ele><time>2026-09-12T11:10:00Z</time></trkpt>
    <trkpt lat="53.097262" lon="-4.098650"><ele>448</ele><time>2026-09-12T11:10:40Z</time></trkpt>
    <trkpt lat="53.097566" lon="-4.098987"><ele>442</ele><time>2026-09-12T11:11:20Z</time></trkpt>
    <trkpt lat="53.097869" lon="-4.099325"><ele>436</ele><time>2026-09-12T11:12:00Z</time></trkpt>
    <trkpt lat="53.098172" lon="-4.099662"><ele>431</ele><time>2026-09-12T11:12:40Z</time></trkpt>
    <trkpt lat="53.098475" lon="-4.100000"><ele>425</ele><time>2026-09-12T11:13:20Z</time></trkpt>
    <trkpt lat="53.098778" lon="-4.100337"><ele>419</ele><time>2026-09-12T11:14:00Z</time></trkpt>
    <trkpt lat="53.099081" lon="-4.100675"><ele>414</ele><time>2026-09-12T11:14:40Z</time></trkpt>
    <trkpt lat="53.099384" lon="-4.101012"><ele>408</ele><time>2026-09-12T11:15:20Z</time></trkpt>
    <trkpt lat="53.099688" lon="-4.101350"><ele>402</ele><time>2026-09-12T11:16:00Z</time></trkpt>
    <trkpt lat="53.099991" lon="-4.101687"><ele>397</ele><time>2026-09-12T11:16:40Z</time></trkpt>
    <trkpt lat="53.100294" lon="-4.102025"><ele>391</ele><time>2026-09-12T11:17:20Z</time></trkpt>
    <trkpt lat="53.100597" lon="-4.102362"><ele>386</ele><time>2026-09-12T11:18:00Z</time></trkpt>
    <trkpt lat="53.100900" lon="-4.102700"><ele>380</ele><time>2026-09-12T11:18:40Z</time></trkpt>
    <trkpt lat="53.101212" lon="-4.103000"><ele>376</ele><time>2026-09-12T11:19:20Z</time></trkpt>
    <trkpt lat="53.101523" lon="-4.103300"><ele>372</ele><time>2026-09-12T11:20:00Z</time></trkpt>
    <trkpt lat="53.101835" lon="-4.103600"><ele>368</ele><time>2026-09-12T11:20:40Z</time></trkpt>
    <trkpt lat="53.102146" lon="-4.103900"><ele>365</ele><time>2026-09-12T11:21:20Z</time></trkpt>
    <trkpt lat="53.102458" lon="-4.104200"><ele>361</ele><time>2026-09-12T11:22:00Z</time></trkpt>
    <trkpt lat="53.102769" lon="-4.104500"><ele>357</ele><time>2026-09-12T11:22:40Z</time></trkpt>
    <trkpt lat="53.103081" lon="-4.104800"><ele>353</ele><time>2026-09-12T11:23:20Z</time></trkpt>
    <trkpt lat="53.103392" lon="-4.105100"><ele>349</ele><time>2026-09-12T11:24:00Z</time></trkpt>
    <trkpt lat="53.103704" lon="-4.105400"><ele>345</ele><time>2026-09-12T11:24:40Z</time></trkpt>
    <trkpt lat="53.104015" lon="-4.105700"><ele>342</ele><time>2026-09-12T11:25:20Z</time></trkpt>
    <trkpt lat="53.104327" lon="-4.106000"><ele>338</ele><time>2026-09-12T11:26:00Z</time></trkpt>
    <trkpt lat="53.104638" lon="-4.106300"><ele>334</ele><time>2026-09-12T11:26:40Z</time></trkpt>
    <trkpt lat="53.104950" lon="-4.106600"><ele>330</ele><time>2026-09-12T11:27:20Z</time></trkpt>
    <trkpt lat="53.105262" lon="-4.106900"><ele>326</ele><time>2026-09-12T11:28:00Z</time></trkpt>
    <trkpt lat="53.105573" lon="-4.107200"><ele>322</ele><time>2026-09-12T11:28:40Z</time></trkpt>
    <trkpt lat="53.105885" lon="-4.107500"><ele>318</ele><time>2026-09-12T11:29:20Z</time></trkpt>
    <trkpt lat="53.106196" lon="-4.107800"><ele>315</ele><time>2026-09-12T11:30:00Z</time></trkpt>
    <trkpt lat="53.106508" lon="-4.108100"><ele>311</ele><time>2026-09-12T11:30:40Z</time></trkpt>
    <trkpt lat="53.106819" lon="-4.108400"><ele>307</ele><time>2026-09-12T11:31:20Z</time></trkpt>
    <trkpt lat="53.107131" lon="-4.108700"><ele>303</ele><time>2026-09-12T11:32:00Z</time></trkpt>
    <trkpt lat="53.107442" lon="-4.109000"><ele>299</ele><time>2026-09-12T11:32:40Z</time></trkpt>
    <trkpt lat="53.107754" lon="-4.109300"><ele>295</ele><time>2026-09-12T11:33:20Z</time></trkpt>
    <trkpt lat="53.108065" lon="-4.109600"><ele>292</ele><time>2026-09-12T11:34:00Z</time></trkpt>
    <trkpt lat="53.108377" lon="-4.109900"><ele>288</ele><time>2026-09-12T11:34:40Z</time></trkpt>
    <trkpt lat="53.108688" lon="-4.110200"><ele>284</ele><time>2026-09-12T11:35:20Z</time></trkpt>
    <trkpt lat="53.109000" lon="-4.110500"><ele>280</ele><time>2026-09-12T11:36:00Z</time></trkpt>
    <trkpt lat="53.109286" lon="-4.110876"><ele>274</ele><time>2026-09-12T11:36:40Z</time></trkpt>
    <trkpt lat="53.109572" lon="-4.111252"><ele>268</ele><time>2026-09-12T11:37:20Z</time></trkpt>
    <trkpt lat="53.109859" lon="-4.111628"><ele>262</ele><time>2026-09-12T11:38:00Z</time></trkpt>
    <trkpt lat="53.110145" lon="-4.112003"><ele>257</ele><time>2026-09-12T11:38:40Z</time></trkpt>
    <trkpt lat="53.110431" lon="-4.112379"><ele>251</ele><time>2026-09-12T11:39:20Z</time></trkpt>
    <trkpt lat="53.110717" lon="-4.112755"><ele>245</ele><time>2026-09-12T11:40:00Z</time></trkpt>
    <trkpt lat="53.111003" lon="-4.113131"><ele>239</ele><time>2026-09-12T11:40:40Z</time></trkpt>
    <trkpt lat="53.111290" lon="-4.113507"><ele>233</ele><time>2026-09-12T11:41:20Z</time></trkpt>
    <trkpt lat="53.111576" lon="-4.113883"><ele>227</ele><time>2026-09-12T11:42:00Z</time></trkpt>
    <trkpt lat="53.111862" lon="-4.114259"><ele>221</ele><time>2026-09-12T11:42:40Z</time></trkpt>
    <trkpt lat="53.112148" lon="-4.114634"><ele>216</ele><time>2026-09-12T11:43:20Z</time></trkpt>
    <trkpt lat="53.112434" lon="-4.115010"><ele>210</ele><time>2026-09-12T11:44:00Z</time></trkpt>
    <trkpt lat="53.112721" lon="-4.115386"><ele>204</ele><time>2026-09-12T11:44:40Z</time></trkpt>
    <trkpt lat="53.113007" lon="-4.115762"><ele>198</ele><time>2026-09-12T11:45:20Z</time></trkpt>
    <trkpt lat="53.113293" lon="-4.116138"><ele>192</ele><time>2026-09-12T11:46:00Z</time></trkpt>
    <trkpt lat="53.113579" lon="-4.116514"><ele>186</ele><time>2026-09-12T11:46:40Z</time></trkpt>
    <trkpt lat="53.113866" lon="-4.116890"><ele>180</ele><time>2026-09-12T11:47:20Z</time></trkpt>
    <trkpt lat="53.114152" lon="-4.117266"><ele>174</ele><time>2026-09-12T11:48:00Z</time></trkpt>
    <trkpt lat="53.114438" lon="-4.117641"><ele>169</ele><time>2026-09-12T11:48:40Z</time></trkpt>
    <trkpt lat="53.114724" lon="-4.118017"><ele>163</ele><time>2026-09-12T11:49:20Z</time></trkpt>
    <trkpt lat="53.115010" lon="-4.118393"><ele>157</ele><time>2026-09-12T11:50:00Z</time></trkpt>
    <trkpt lat="53.115297" lon="-4.118769"><ele>151</ele><time>2026-09-12T11:50:40Z</time></trkpt>
    <trkpt lat="53.115583" lon="-4.119145"><ele>145</ele><time>2026-09-12T11:51:20Z</time></trkpt>
    <trkpt lat="53.115869" lon="-4.119521"><ele>139</ele><time>2026-09-12T11:52:00Z</time></trkpt>
    <trkpt lat="53.116155" lon="-4.119897"><ele>133</ele><time>2026-09-12T11:52:40Z</time></trkpt>
    <trkpt lat="53.116441" lon="-4.120272"><ele>128</ele><time>2026-09-12T11:53:20Z</time></trkpt>
    <trkpt lat="53.116728" lon="-4.120648"><ele>122</ele><time>2026-09-12T11:54:00Z</time></trkpt>
    <trkpt lat="53.117014" lon="-4.121024"><ele>116</ele><time>2026-09-12T11:54:40Z</time></trkpt>
    <trkpt lat="53.117300" lon="-4.121400"><ele>110</ele><time>2026-09-12T11:55:20Z</time></trkpt>
  </trkseg></trk>
</gpx>
